H1 CPF 01  gfz 2022 11 16 01  8201 terrasarx 
H2 0702601  6201 31698    2022 11 16 00 59 42 2022 11 21 00 00 42   120 1 1  0 0 0
H9
10 0 59903  71982.000000  0   -5959009.915   3170011.871   1371029.646
10 0 59903  72102.000000  0   -5980510.730   3385866.848    474752.545
10 0 59903  72222.000000  0   -5894217.171   3541971.019   -429884.761
10 0 59903  72342.000000  0   -5702774.256   3633762.599  -1326959.774
10 0 59903  72462.000000  0   -5410750.905   3657880.885  -2200702.620
10 0 59903  72582.000000  0   -5024529.987   3612254.794  -3035782.123
10 0 59903  72702.000000  0   -4552163.433   3496164.416  -3817579.723
10 0 59903  72822.000000  0   -4003196.021   3310274.240  -4532446.234
10 0 59903  72942.000000  0   -3388464.550   3056638.407  -5167936.770
10 0 59903  73062.000000  0   -2719876.855   2738678.179  -5713019.621
10 0 59903  73182.000000  0   -2010177.569   2361133.740  -6158258.563
10 0 59903  73302.000000  0   -1272701.941   1929989.979  -6495965.868
10 0 59903  73422.000000  0    -521125.884   1452378.880  -6720322.517
10 0 59903  73542.000000  0     230783.831    936460.974  -6827468.240
10 0 59903  73662.000000  0     969415.175    391287.790  -6815560.720
10 0 59903  73782.000000  0    1681552.309   -173353.716  -6684805.480
10 0 59903  73902.000000  0    2354606.771   -747112.988  -6437451.298
10 0 59903  74022.000000  0    2976835.219  -1319260.478  -6077756.181
10 0 59903  74142.000000  0    3537542.177  -1878883.052  -5611921.384
10 0 59903  74262.000000  0    4027264.777  -2415087.896  -5047996.263
10 0 59903  74382.000000  0    4437937.110  -2917213.626  -4395750.062
10 0 59903  74502.000000  0    4763028.184  -3375042.168  -3666512.718
10 0 59903  74622.000000  0    4997653.120  -3779007.325  -2872987.559
10 0 59903  74742.000000  0    5138655.056  -4120396.885  -2029036.117
10 0 59903  74862.000000  0    5184653.533  -4391542.181  -1149438.001
10 0 59903  74982.000000  0    5136058.457  -4585991.213   -249630.548
10 0 59903  75102.000000  0    4995047.440  -4698660.578    654567.355
10 0 59903  75222.000000  0    4765506.934  -4725960.664   1547241.545
10 0 59903  75342.000000  0    4452938.202  -4665890.566   2412671.809
10 0 59903  75462.000000  0    4064331.278  -4518100.954   3235616.898
10 0 59903  75582.000000  0    3608010.163  -4283923.539   4001590.103
10 0 59903  75702.000000  0    3093452.104  -3966366.163   4697119.389
10 0 59903  75822.000000  0    2531086.925  -3570073.037   5309986.092
10 0 59903  75942.000000  0    1932081.911  -3101253.206   5829438.507
10 0 59903  76062.000000  0    1308115.763  -2567577.538   6246377.341
10 0 59903  76182.000000  0     671148.054  -1978048.067   6553508.829
10 0 59903  76302.000000  0      33188.374  -1342842.668   6745466.021
10 0 59903  76422.000000  0    -593929.843   -673137.101   6818897.087
10 0 59903  76542.000000  0   -1198767.703     19092.923   6772519.915
10 0 59903  76662.000000  0   -1770488.704    721285.537   6607143.000
10 0 59903  76782.000000  0   -2299052.308   1420519.982   6325652.185
10 0 59903  76902.000000  0   -2775390.727   2103753.367   5932963.474
10 0 59903  77022.000000  0   -3191565.922   2758063.838   5435942.908
10 0 59903  77142.000000  0   -3540905.272   3370896.727   4843293.040
10 0 59903  77262.000000  0   -3818112.934   3930308.329   4165406.318
10 0 59903  77382.000000  0   -4019354.117   4425203.597   3414187.466
10 0 59903  77502.000000  0   -4142310.388   4845562.319   2602846.342
10 0 59903  77622.000000  0   -4186203.941   5182647.416   1745663.716
10 0 59903  77742.000000  0   -4151790.187   5429190.196    857736.104
10 0 59903  77862.000000  0   -4041320.025   5579548.695    -45295.713
10 0 59903  77982.000000  0   -3858471.535   5629835.535   -947530.999
10 0 59903  78102.000000  0   -3608251.102   5578009.392  -1833099.817
10 0 59903  78222.000000  0   -3296867.530   5423927.559  -2686451.134
10 0 59903  78342.000000  0   -2931582.564   5169361.091  -3492631.575
10 0 59903  78462.000000  0   -2520543.840   4817970.179  -4237550.121
10 0 59903  78582.000000  0   -2072603.490   4375242.696  -4908222.566
10 0 59903  78702.000000  0   -1597127.744   3848399.169  -5492991.020
10 0 59903  78822.000000  0   -1103802.404   3246267.356  -5981718.671
10 0 59903  78942.000000  0    -602436.841   2579126.699  -6365956.327
10 0 59903  79062.000000  0    -102771.114   1858527.465  -6639076.609
10 0 59903  79182.000000  0     385708.913   1097089.762  -6796377.142
10 0 59903  79302.000000  0     853946.937    308284.569  -6835153.578
10 0 59903  79422.000000  0    1293480.513   -493800.424  -6754741.221
10 0 59903  79542.000000  0    1696589.903  -1294707.228  -6556523.684
10 0 59903  79662.000000  0    2056430.213  -2079860.953  -6243911.321
10 0 59903  79782.000000  0    2367146.449  -2834828.378  -5822289.459
10 0 59903  79902.000000  0    2623969.144  -3545579.923  -5298937.043
10 0 59903  80022.000000  0    2823289.773  -4198751.790  -4682911.381
10 0 59903  80142.000000  0    2962712.243  -4781898.435  -3984900.477
10 0 59903  80262.000000  0    3041080.945  -5283733.699  -3217048.762
10 0 59903  80382.000000  0    3058484.808  -5694358.296  -2392754.211
10 0 59903  80502.000000  0    3016236.093  -6005464.329  -1526438.098
10 0 59903  80622.000000  0    2916824.433  -6210512.739   -633292.741
10 0 59903  80742.000000  0    2763845.238  -6304878.504    270989.753
10 0 59903  80862.000000  0    2561904.545  -6285957.290   1170499.854
10 0 59903  80982.000000  0    2316503.525  -6153233.956   2049398.849
10 0 59903  81102.000000  0    2033904.064  -5908307.228   2892208.212
10 0 59903  81222.000000  0    1720979.712  -5554870.492   3684089.567
10 0 59903  81342.000000  0    1385055.782  -5098651.920   4411110.901
10 0 59903  81462.000000  0    1033743.421  -4547314.775   5060494.216
10 0 59903  81582.000000  0     674771.207  -3910321.045   5620841.435
10 0 59903  81702.000000  0     315817.297  -3198758.572   6082332.526
10 0 59903  81822.000000  0     -35652.225  -2425138.983   6436891.169
10 0 59903  81942.000000  0    -372536.095  -1603172.558   6678319.001
10 0 59903  82062.000000  0    -688239.003   -747522.985   6802398.426
10 0 59903  82182.000000  0    -976799.203    126455.760   6806962.834
10 0 59903  82302.000000  0   -1233000.345   1002995.412   6691932.043
10 0 59903  82422.000000  0   -1452465.323   1866197.324   6459313.235
10 0 59903  82542.000000  0   -1631731.167   2700320.097   6113168.282
10 0 59903  82662.000000  0   -1768304.116   3490067.119   5659547.031
10 0 59903  82782.000000  0   -1860693.336   4220868.970   5106387.230
10 0 59903  82902.000000  0   -1908423.508   4879157.252   4463382.690
10 0 59903  83022.000000  0   -1912025.598   5452623.974   3741818.213
10 0 59903  83142.000000  0   -1873005.632   5930460.523   2954374.490
10 0 59903  83262.000000  0   -1793792.920   6303570.186   2114905.264
10 0 59903  83382.000000  0   -1677667.562   6564750.394   1238190.914
10 0 59903  83502.000000  0   -1528668.420   6708838.787    339672.667
10 0 59903  83622.000000  0   -1351484.958   6732819.578   -564826.330
10 0 59903  83742.000000  0   -1151335.451   6635888.612  -1459389.156
10 0 59903  83862.000000  0    -933833.288   6419470.531  -2328296.802
10 0 59903  83982.000000  0    -704847.279   6087188.660  -3156310.988
10 0 59903  84102.000000  0    -470359.091   5644793.589  -3928943.529
10 0 59903  84222.000000  0    -236320.926   5100052.454  -4632709.870
10 0 59903  84342.000000  0      -8516.969   4462600.286  -5255361.022
10 0 59903  84462.000000  0     207568.662   3743758.764  -5786090.243
10 0 59903  84582.000000  0     406874.245   2956325.458  -6215711.729
10 0 59903  84702.000000  0     584869.921   2114339.231  -6536808.130
10 0 59903  84822.000000  0     737653.164   1232828.282  -6743846.997
10 0 59903  84942.000000  0     862028.677    327543.683  -6833266.740
10 0 59903  85062.000000  0     955571.264   -585317.676  -6803531.322
10 0 59903  85182.000000  0    1016670.911  -1489397.045  -6655152.661
10 0 59903  85302.000000  0    1044559.687  -2368458.569  -6390681.402
10 0 59903  85422.000000  0    1039320.906  -3206673.063  -6014669.489
10 0 59903  85542.000000  0    1001879.196  -3988900.571  -5533601.783
10 0 59903  85662.000000  0     933971.653  -4700963.767  -4955793.480
10 0 59903  85782.000000  0     838101.693  -5329907.274  -4291257.889
10 0 59903  85902.000000  0     717474.685  -5864240.825  -3551543.966
10 0 59903  86022.000000  0     575916.938  -6294159.218  -2749543.707
10 0 59903  86142.000000  0     417779.860  -6611734.218  -1899273.286
10 0 59903  86262.000000  0     247831.059  -6811074.225  -1015629.544
10 0 59903  86382.000000  0      71134.435  -6888444.996   -114126.044
99
